SENTINEL-1A             
1 39634U 14016A   26189.96747807 -.00000167  00000+0 -25668-4 0  9997
2 39634  98.1787 197.1820 0001408  87.5922 272.5439 14.59198675653192
SENTINEL-1C             
1 62261U 24235A   26190.00687368  .00000280  00000+0  69104-4 0  9992
2 62261  98.1821 197.0043 0001369  90.0308 270.1049 14.59197210 84599
SENTINEL-1D             
1 66315U 25251A   26189.90416844 -.00000012  00000+0  71157-5 0  9997
2 66315  98.1829 196.9580 0001362  90.0526 270.0830 14.59198118 35894
